{
  "type": "FeatureCollection",
  "features": [
    {
      "type": "Feature",
      "properties": {
        "norad_id": 66563,
        "name": "STARLINK-35437",
        "group": "last-30-days",
        "lat": -42.85213815607003,
        "lon": 27.357197496743495,
        "alt_km": 415.66706562399395,
        "timestamp": "2025-12-14T07:33:18.186722+00:00",
        "meta_object_name": "STARLINK-35437",
        "meta_object_id": "2025-268G",
        "meta_epoch": "2025-12-13T07:11:40.442496",
        "meta_mean_motion": 15.5068465,
        "meta_eccentricity": 0.00017585,
        "meta_inclination": 42.9998,
        "meta_ra_of_asc_node": 117.896,
        "meta_arg_of_pericenter": 274.3854,
        "meta_mean_anomaly": 85.6805,
        "meta_ephemeris_type": 0,
        "meta_classification_type": "U",
        "meta_norad_cat_id": 66563,
        "meta_element_set_no": 999,
        "meta_rev_at_epoch": 471,
        "meta_bstar": 0.003611484,
        "meta_mean_motion_dot": 0.00218364,
        "meta_mean_motion_ddot": 0,
        "tle_line1": "1 66563U 25268G   25347.29977364  .00218364  00000+0  36115-2 0  9998",
        "tle_line2": "2 66563  42.9998 117.8960 0001758 274.3854  85.6805 15.50684650  4719"
      },
      "geometry": {
        "type": "Point",
        "coordinates": [
          27.357197496743495,
          -42.85213815607003
        ]
      }
    },
    {
      "type": "Feature",
      "properties": {
        "norad_id": 66564,
        "name": "STARLINK-35358",
        "group": "last-30-days",
        "lat": -42.7235600515717,
        "lon": 29.609795640898117,
        "alt_km": 416.0756192150684,
        "timestamp": "2025-12-14T07:33:18.186733+00:00",
        "meta_object_name": "STARLINK-35358",
        "meta_object_id": "2025-268H",
        "meta_epoch": "2025-12-13T07:11:10.893696",
        "meta_mean_motion": 15.50655101,
        "meta_eccentricity": 0.00016053,
        "meta_inclination": 43,
        "meta_ra_of_asc_node": 117.8937,
        "meta_arg_of_pericenter": 277.7652,
        "meta_mean_anomaly": 82.3026,
        "meta_ephemeris_type": 0,
        "meta_classification_type": "U",
        "meta_norad_cat_id": 66564,
        "meta_element_set_no": 999,
        "meta_rev_at_epoch": 471,
        "meta_bstar": 0.0029732082,
        "meta_mean_motion_dot": 0.00178603,
        "meta_mean_motion_ddot": 0,
        "tle_line1": "1 66564U 25268H   25347.29943164  .00178603  00000+0  29732-2 0  9998",
        "tle_line2": "2 66564  43.0000 117.8937 0001605 277.7652  82.3026 15.50655101  4712"
      },
      "geometry": {
        "type": "Point",
        "coordinates": [
          29.609795640898117,
          -42.7235600515717
        ]
      }
    },
    {
      "type": "Feature",
      "properties": {
        "norad_id": 66565,
        "name": "STARLINK-35893",
        "group": "last-30-days",
        "lat": -42.49272599645815,
        "lon": 32.491897621140275,
        "alt_km": 415.26904686755734,
        "timestamp": "2025-12-14T07:33:18.186743+00:00",
        "meta_object_name": "STARLINK-35893",
        "meta_object_id": "2025-268J",
        "meta_epoch": "2025-12-13T07:10:40.944864",
        "meta_mean_motion": 15.50675168,
        "meta_eccentricity": 0.00023857,
        "meta_inclination": 42.9998,
        "meta_ra_of_asc_node": 117.8901,
        "meta_arg_of_pericenter": 265.1059,
        "meta_mean_anomaly": 94.9529,
        "meta_ephemeris_type": 0,
        "meta_classification_type": "U",
        "meta_norad_cat_id": 66565,
        "meta_element_set_no": 999,
        "meta_rev_at_epoch": 471,
        "meta_bstar": 0.0035757986,
        "meta_mean_motion_dot": 0.00216069,
        "meta_mean_motion_ddot": 0,
        "tle_line1": "1 66565U 25268J   25347.29908501  .00216069  00000+0  35758-2 0  9999",
        "tle_line2": "2 66565  42.9998 117.8901 0002385 265.1059  94.9529 15.50675168  4718"
      },
      "geometry": {
        "type": "Point",
        "coordinates": [
          32.491897621140275,
          -42.49272599645815
        ]
      }
    },
    {
      "type": "Feature",
      "properties": {
        "norad_id": 66566,
        "name": "STARLINK-35871",
        "group": "last-30-days",
        "lat": -42.27110351407419,
        "lon": 34.64730393185939,
        "alt_km": 416.0535446775648,
        "timestamp": "2025-12-14T07:33:18.186753+00:00",
        "meta_object_name": "STARLINK-35871",
        "meta_object_id": "2025-268K",
        "meta_epoch": "2025-12-13T07:10:11.470368",
        "meta_mean_motion": 15.50653112,
        "meta_eccentricity": 0.00017939,
        "meta_inclination": 42.9995,
        "meta_ra_of_asc_node": 117.8868,
        "meta_arg_of_pericenter": 271.8651,
        "meta_mean_anomaly": 88.2003,
        "meta_ephemeris_type": 0,
        "meta_classification_type": "U",
        "meta_norad_cat_id": 66566,
        "meta_element_set_no": 999,
        "meta_rev_at_epoch": 471,
        "meta_bstar": 0.0025958318,
        "meta_mean_motion_dot": 0.00155415,
        "meta_mean_motion_ddot": 0,
        "tle_line1": "1 66566U 25268K   25347.29874387  .00155415  00000+0  25958-2 0  9992",
        "tle_line2": "2 66566  42.9995 117.8868 0001793 271.8651  88.2003 15.50653112  4710"
      },
      "geometry": {
        "type": "Point",
        "coordinates": [
          34.64730393185939,
          -42.27110351407419
        ]
      }
    },
    {
      "type": "Feature",
      "properties": {
        "norad_id": 66567,
        "name": "STARLINK-35825",
        "group": "last-30-days",
        "lat": -41.88847659195466,
        "lon": 37.67428751110044,
        "alt_km": 415.616670009078,
        "timestamp": "2025-12-14T07:33:18.186765+00:00",
        "meta_object_name": "STARLINK-35825",
        "meta_object_id": "2025-268L",
        "meta_epoch": "2025-12-13T08:42:26.885952",
        "meta_mean_motion": 15.50711822,
        "meta_eccentricity": 0.00017295,
        "meta_inclination": 42.9993,
        "meta_ra_of_asc_node": 117.5073,
        "meta_arg_of_pericenter": 263.0073,
        "meta_mean_anomaly": 97.059,
        "meta_ephemeris_type": 0,
        "meta_classification_type": "U",
        "meta_norad_cat_id": 66567,
        "meta_element_set_no": 999,
        "meta_rev_at_epoch": 472,
        "meta_bstar": 0.0037470681,
        "meta_mean_motion_dot": 0.00227049,
        "meta_mean_motion_ddot": 0,
        "tle_line1": "1 66567U 25268L   25347.36281118  .00227049  00000+0  37471-2 0  9991",
        "tle_line2": "2 66567  42.9993 117.5073 0001729 263.0073  97.0590 15.50711822  4727"
      },
      "geometry": {
        "type": "Point",
        "coordinates": [
          37.67428751110044,
          -41.88847659195466
        ]
      }
    },
    {
      "type": "Feature",
      "properties": {
        "norad_id": 66568,
        "name": "STARLINK-35803",
        "group": "last-30-days",
        "lat": -41.501301787931,
        "lon": 40.21503836198906,
        "alt_km": 415.2384798981466,
        "timestamp": "2025-12-14T07:33:18.186776+00:00",
        "meta_object_name": "STARLINK-35803",
        "meta_object_id": "2025-268M",
        "meta_epoch": "2025-12-13T08:41:56.908608",
        "meta_mean_motion": 15.50717312,
        "meta_eccentricity": 0.00024642,
        "meta_inclination": 42.9993,
        "meta_ra_of_asc_node": 117.5029,
        "meta_arg_of_pericenter": 252.0987,
        "meta_mean_anomaly": 107.9605,
        "meta_ephemeris_type": 0,
        "meta_classification_type": "U",
        "meta_norad_cat_id": 66568,
        "meta_element_set_no": 999,
        "meta_rev_at_epoch": 472,
        "meta_bstar": 0.0036685951,
        "meta_mean_motion_dot": 0.00222195,
        "meta_mean_motion_ddot": 0,
        "tle_line1": "1 66568U 25268M   25347.36246422  .00222195  00000+0  36686-2 0  9995",
        "tle_line2": "2 66568  42.9993 117.5029 0002464 252.0987 107.9605 15.50717312  4726"
      },
      "geometry": {
        "type": "Point",
        "coordinates": [
          40.21503836198906,
          -41.501301787931
        ]
      }
    },
    {
      "type": "Feature",
      "properties": {
        "norad_id": 66569,
        "name": "STARLINK-35835",
        "group": "last-30-days",
        "lat": -41.08352162759671,
        "lon": 42.59624482588539,
        "alt_km": 415.170484323633,
        "timestamp": "2025-12-14T07:33:18.186786+00:00",
        "meta_object_name": "STARLINK-35835",
        "meta_object_id": "2025-268N",
        "meta_epoch": "2025-12-13T07:08:42.513792",
        "meta_mean_motion": 15.5067487,
        "meta_eccentricity": 0.00024221,
        "meta_inclination": 42.9997,
        "meta_ra_of_asc_node": 117.8787,
        "meta_arg_of_pericenter": 267.9926,
        "meta_mean_anomaly": 92.0656,
        "meta_ephemeris_type": 0,
        "meta_classification_type": "U",
        "meta_norad_cat_id": 66569,
        "meta_element_set_no": 999,
        "meta_rev_at_epoch": 471,
        "meta_bstar": 0.0036751571,
        "meta_mean_motion_dot": 0.00222258,
        "meta_mean_motion_ddot": 0,
        "tle_line1": "1 66569U 25268N   25347.29771428  .00222258  00000+0  36752-2 0  9991",
        "tle_line2": "2 66569  42.9997 117.8787 0002422 267.9926  92.0656 15.50674870  4717"
      },
      "geometry": {
        "type": "Point",
        "coordinates": [
          42.59624482588539,
          -41.08352162759671
        ]
      }
    }
  ]
}